[{"OBJECT_NAME":"YAOGAN-14","OBJECT_ID":"2012-021A","EPOCH":"2026-03-09T23:13:16.463424","MEAN_MOTION":15.26486019,"ECCENTRICITY":0.00056417,"INCLINATION":97.2863,"RA_OF_ASC_NODE":208.4378,"ARG_OF_PERICENTER":161.6562,"MEAN_ANOMALY":198.4882,"EPHEMERIS_TYPE":0,"CLASSIFICATION_TYPE":"U","NORAD_CAT_ID":38257,"ELEMENT_SET_NO":999,"REV_AT_EPOCH":77067,"BSTAR":0.00037795498,"MEAN_MOTION_DOT":9.798e-5,"MEAN_MOTION_DDOT":0},{"OBJECT_NAME":"STARLINK-31343","OBJECT_ID":"2024-041V","EPOCH":"2026-03-09T09:31:01.235712","MEAN_MOTION":15.27562442,"ECCENTRICITY":0.00015752,"INCLINATION":43.0026,"RA_OF_ASC_NODE":312.6134,"ARG_OF_PERICENTER":269.7459,"MEAN_ANOMALY":90.3212,"EPHEMERIS_TYPE":0,"CLASSIFICATION_TYPE":"U","NORAD_CAT_ID":59093,"ELEMENT_SET_NO":999,"REV_AT_EPOCH":11427,"BSTAR":0.00033569117,"MEAN_MOTION_DOT":8.982e-5,"MEAN_MOTION_DDOT":0}]
